CTC2_L_00172016-03
1 10062U 24635TW  26075.70042824  .00000000  00000+0  00000-0 0  9995
2 10062  80.0000 180.0000 0000000   0.0000   0.0000 14.89338871    11
CTC2_L_00172016-04
1 10063U 24731JN  26075.70042824  .00000000  00000+0  00000-0 0  9993
2 10063  80.0000 180.0000 0000000   0.0000  90.0000 14.89338871    11
CTC2_L_00172017-01
1 10064U 26961GJ  26075.70042824  .00000000  00000+0  00000-0 0  9991
2 10064  80.0000 192.0000 0000000   0.0000 192.0000 14.89338871    18
CTC2_L_00172017-02
1 10065U 24832OM  26075.70042824  .00000000  00000+0  00000-0 0  9997
2 10065  80.0000 192.0000 0000000   0.0000 282.0000 14.89338871    19
CTC2_L_00172017-03
1 10066U 26505UB  26075.70042824  .00000000  00000+0  00000-0 0  9997
2 10066  80.0000 192.0000 0000000   0.0000  12.0000 14.89338871    11
CTC2_L_00172017-04
1 10067U 23172ZL  26075.70042824  .00000000  00000+0  00000-0 0  9995
2 10067  80.0000 192.0000 0000000   0.0000 102.0000 14.89338871    12
CTC2_L_00172018-01
1 10068U 26639CH  26075.70042824  .00000000  00000+0  00000-0 0  9997
2 10068  80.0000 204.0000 0000000   0.0000 204.0000 14.89338871    10
CTC2_L_00172018-02
1 10069U 22766KZ  26075.70042824  .00000000  00000+0  00000-0 0  9995
2 10069  80.0000 204.0000 0000000   0.0000 294.0000 14.89338871    10
CTC2_L_00172018-03
1 10070U 24076EU  26075.70042824  .00000000  00000+0  00000-0 0  9993
2 10070  80.0000 204.0000 0000000   0.0000  24.0000 14.89338871    13
CTC2_L_00172018-04
1 10071U 26851KE  26075.70042824  .00000000  00000+0  00000-0 0  9997
2 10071  80.0000 204.0000 0000000   0.0000 114.0000 14.89338871    14
CTC2_L_00172019-01
1 10072U 24585GZ  26075.70042824  .00000000  00000+0  00000-0 0  9990
2 10072  80.0000 216.0000 0000000   0.0000 216.0000 14.89338871    11
CTC2_L_00172019-02
1 10073U 25514CW  26075.70042824  .00000000  00000+0  00000-0 0  9994
2 10073  80.0000 216.0000 0000000   0.0000 306.0000 14.89338871    12
CTC2_L_00172019-03
1 10074U 26253RI  26075.70042824  .00000000  00000+0  00000-0 0  9996
2 10074  80.0000 216.0000 0000000   0.0000  36.0000 14.89338871    13
CTC2_L_00172019-04
1 10075U 23659LR  26075.70042824  .00000000  00000+0  00000-0 0  9994
2 10075  80.0000 216.0000 0000000   0.0000 126.0000 14.89338871    14
CTC2_L_00172020-01
1 10076U 22018HU  26075.70042824  .00000000  00000+0  00000-0 0  9993
2 10076  80.0000 228.0000 0000000   0.0000 228.0000 14.89338871    11
CTC2_L_00172020-02
1 10077U 22210IL  26075.70042824  .00000000  00000+0  00000-0 0  9998
2 10077  80.0000 228.0000 0000000   0.0000 318.0000 14.89338871    12
CTC2_L_00172020-03
1 10078U 22336LR  26075.70042824  .00000000  00000+0  00000-0 0  9998
2 10078  80.0000 228.0000 0000000   0.0000  48.0000 14.89338871    13
CTC2_L_00172020-04
1 10079U 26938QA  26075.70042824  .00000000  00000+0  00000-0 0  9991
2 10079  80.0000 228.0000 0000000   0.0000 138.0000 14.89338871    14
CTC2_L_00172021-01
1 10080U 25408KK  26075.70042824  .00000000  00000+0  00000-0 0  9994
2 10080  80.0000 240.0000 0000000   0.0000 240.0000 14.89338871    14
CTC2_L_00172021-02
1 10081U 22942KG  26075.70042824  .00000000  00000+0  00000-0 0  9995
2 10081  80.0000 240.0000 0000000   0.0000 330.0000 14.89338871    15
CTC2_L_00172021-03
1 10082U 24613NT  26075.70042824  .00000000  00000+0  00000-0 0  9993
2 10082  80.0000 240.0000 0000000   0.0000  60.0000 14.89338871    16
CTC2_L_00172021-04
1 10083U 26460BO  26075.70042824  .00000000  00000+0  00000-0 0  9996
2 10083  80.0000 240.0000 0000000   0.0000 150.0000 14.89338871    17
CTC2_L_00172022-01
1 10084U 25537HQ  26075.70042824  .00000000  00000+0  00000-0 0  9991
2 10084  80.0000 252.0000 0000000   0.0000 252.0000 14.89338871    14
CTC2_L_00172022-02
1 10085U 25250GV  26075.70042824  .00000000  00000+0  00000-0 0  9994
2 10085  80.0000 252.0000 0000000   0.0000 342.0000 14.89338871    15
CTC2_L_00172022-03
1 10086U 23156SA  26075.70042824  .00000000  00000+0  00000-0 0  9998
2 10086  80.0000 252.0000 0000000   0.0000  72.0000 14.89338871    16
CTC2_L_00172022-04
1 10087U 22763MX  26075.70042824  .00000000  00000+0  00000-0 0  9992
2 10087  80.0000 252.0000 0000000   0.0000 162.0000 14.89338871    17
CTC2_L_00172023-01
1 10088U 23832IC  26075.70042824  .00000000  00000+0  00000-0 0  9991
2 10088  80.0000 264.0000 0000000   0.0000 264.0000 14.89338871    14
CTC2_L_00172023-02
1 10089U 23624QS  26075.70042824  .00000000  00000+0  00000-0 0  9991
2 10089  80.0000 264.0000 0000000   0.0000 354.0000 14.89338871    15
CTC2_L_00172023-03
1 10090U 23152XS  26075.70042824  .00000000  00000+0  00000-0 0  9999
2 10090  80.0000 264.0000 0000000   0.0000  84.0000 14.89338871    17
CTC2_L_00172023-04
1 10091U 23714SU  26075.70042824  .00000000  00000+0  00000-0 0  9994
2 10091  80.0000 264.0000 0000000   0.0000 174.0000 14.89338871    18
CTC2_L_00172024-01
1 10092U 25526VN  26075.70042824  .00000000  00000+0  00000-0 0  9998
2 10092  80.0000 276.0000 0000000   0.0000 276.0000 14.89338871    15
CTC2_L_00172024-02
1 10093U 25685ZU  26075.70042824  .00000000  00000+0  00000-0 0  9995
2 10093  80.0000 276.0000 0000000   0.0000   6.0000 14.89338871    17
CTC2_L_00172024-03
1 10094U 26017JJ  26075.70042824  .00000000  00000+0  00000-0 0  9996
2 10094  80.0000 276.0000 0000000   0.0000  96.0000 14.89338871    17
CTC2_L_00172024-04
1 10095U 25133DX  26075.70042824  .00000000  00000+0  00000-0 0  9995
2 10095  80.0000 276.0000 0000000   0.0000 186.0000 14.89338871    18
CTC2_L_00172025-01
1 10096U 26098QI  26075.70042824  .00000000  00000+0  00000-0 0  9997
2 10096  80.0000 288.0000 0000000   0.0000 288.0000 14.89338871    15
CTC2_L_00172025-02
1 10097U 26602FZ  26075.70042824  .00000000  00000+0  00000-0 0  9999
2 10097  80.0000 288.0000 0000000   0.0000  18.0000 14.89338871    17
CTC2_L_00172025-03
1 10098U 26311ZV  26075.70042824  .00000000  00000+0  00000-0 0  9997
2 10098  80.0000 288.0000 0000000   0.0000 108.0000 14.89338871    18
CTC2_L_00172025-04
1 10099U 26916NA  26075.70042824  .00000000  00000+0  00000-0 0  9999
2 10099  80.0000 288.0000 0000000   0.0000 198.0000 14.89338871    18
CTC2_L_00172026-01
1 10100U 24119IS  26075.70042824  .00000000  00000+0  00000-0 0  9995
2 10100  80.0000 300.0000 0000000   0.0000 300.0000 14.89338871    11
CTC2_L_00172026-02
1 10101U 23871HM  26075.70042824  .00000000  00000+0  00000-0 0  9990
2 10101  80.0000 300.0000 0000000   0.0000  30.0000 14.89338871    12
CTC2_L_00172026-03
1 10102U 26098QX  26075.70042824  .00000000  00000+0  00000-0 0  9995
2 10102  80.0000 300.0000 0000000   0.0000 120.0000 14.89338871    13
CTC2_L_00172026-04
1 10103U 26180VV  26075.70042824  .00000000  00000+0  00000-0 0  9998
2 10103  80.0000 300.0000 0000000   0.0000 210.0000 14.89338871    14
CTC2_L_00172027-01
1 10104U 24050SL  26075.70042824  .00000000  00000+0  00000-0 0  9993
2 10104  80.0000 312.0000 0000000   0.0000 312.0000 14.89338871    11
CTC2_L_00172027-02
1 10105U 26054NL  26075.70042824  .00000000  00000+0  00000-0 0  9990
2 10105  80.0000 312.0000 0000000   0.0000  42.0000 14.89338871    12
CTC2_L_00172027-03
1 10106U 23151AR  26075.70042824  .00000000  00000+0  00000-0 0  9996
2 10106  80.0000 312.0000 0000000   0.0000 132.0000 14.89338871    13
CTC2_L_00172027-04
1 10107U 22381TI  26075.70042824  .00000000  00000+0  00000-0 0  9991
2 10107  80.0000 312.0000 0000000   0.0000 222.0000 14.89338871    14
CTC2_L_00172028-01
1 10108U 26556ME  26075.70042824  .00000000  00000+0  00000-0 0  9990
2 10108  80.0000 324.0000 0000000   0.0000 324.0000 14.89338871    11
CTC2_L_00172028-02
1 10109U 25037JD  26075.70042824  .00000000  00000+0  00000-0 0  9994
2 10109  80.0000 324.0000 0000000   0.0000  54.0000 14.89338871    12
CTC2_L_00172028-03
1 10110U 23358DJ  26075.70042824  .00000000  00000+0  00000-0 0  9990
2 10110  80.0000 324.0000 0000000   0.0000 144.0000 14.89338871    14
CTC2_L_00172028-04
1 10111U 25578BC  26075.70042824  .00000000  00000+0  00000-0 0  9997
2 10111  80.0000 324.0000 0000000   0.0000 234.0000 14.89338871    15
CTC2_L_00172029-01
1 10112U 26280LX  26075.70042824  .00000000  00000+0  00000-0 0  9999
2 10112  80.0000 336.0000 0000000   0.0000 336.0000 14.89338871    12
CTC2_L_00172029-02
1 10113U 24163FQ  26075.70042824  .00000000  00000+0  00000-0 0  9998
2 10113  80.0000 336.0000 0000000   0.0000  66.0000 14.89338871    13
CTC2_L_00172029-03
1 10114U 23044LA  26075.70042824  .00000000  00000+0  00000-0 0  9996
2 10114  80.0000 336.0000 0000000   0.0000 156.0000 14.89338871    14
CTC2_L_00172029-04
1 10115U 24973NX  26075.70042824  .00000000  00000+0  00000-0 0  9999
2 10115  80.0000 336.0000 0000000   0.0000 246.0000 14.89338871    15
CTC2_L_00172030-01
1 10116U 23266PK  26075.70042824  .00000000  00000+0  00000-0 0  9994
2 10116  80.0000 348.0000 0000000   0.0000 348.0000 14.89338871    12
CTC2_L_00172030-02
1 10117U 26182DD  26075.70042824  .00000000  00000+0  00000-0 0  9995
2 10117  80.0000 348.0000 0000000   0.0000  78.0000 14.89338871    13
CTC2_L_00172030-03
1 10118U 23361AK  26075.70042824  .00000000  00000+0  00000-0 0  9992
2 10118  80.0000 348.0000 0000000   0.0000 168.0000 14.89338871    14
CTC2_L_00172030-04
1 10119U 25184EP  26075.70042824  .00000000  00000+0  00000-0 0  9998
2 10119  80.0000 348.0000 0000000   0.0000 258.0000 14.89338871    15
